[{"OBJECT_NAME":"STARLINK-5276","OBJECT_ID":"2023-014J","EPOCH":"2026-03-09T09:30:37.138752","MEAN_MOTION":14.98330885,"ECCENTRICITY":0.00032459,"INCLINATION":69.9995,"RA_OF_ASC_NODE":65.1102,"ARG_OF_PERICENTER":267.8611,"MEAN_ANOMALY":92.2177,"EPHEMERIS_TYPE":0,"CLASSIFICATION_TYPE":"U","NORAD_CAT_ID":55399,"ELEMENT_SET_NO":999,"REV_AT_EPOCH":17201,"BSTAR":3.6248483e-5,"MEAN_MOTION_DOT":3.4e-6,"MEAN_MOTION_DDOT":0},{"OBJECT_NAME":"CZ-1 DEB","OBJECT_ID":"1970-034D","EPOCH":"2026-03-09T20:10:39.614592","MEAN_MOTION":13.9655912,"ECCENTRICITY":0.06611872,"INCLINATION":68.3694,"RA_OF_ASC_NODE":240.5133,"ARG_OF_PERICENTER":139.7447,"MEAN_ANOMALY":225.4605,"EPHEMERIS_TYPE":0,"CLASSIFICATION_TYPE":"U","NORAD_CAT_ID":25882,"ELEMENT_SET_NO":999,"REV_AT_EPOCH":30910,"BSTAR":0.0010001113,"MEAN_MOTION_DOT":9.706e-5,"MEAN_MOTION_DDOT":0}]
